GMID,Dataset,Facility Name,Address,數據集,設施名稱,地址,District,地區,Opening Hours,開放時間,Telephone,聯絡電話,Fax Number,傳真號碼,Email Address,電郵地址,Website,網頁,Scope of Services,服務範圍,Remarks,備註,Northing,Easting,Latitude,Longitude,Last Update
"GsPlOlRqBo","Post Offices","Stanley Post Office","2 Wong Ma Kok Road","郵政局","赤柱郵政局","黃麻角道2號","SOUTHERN","南區","9:30 a.m. - 4:30 p.m. Mon to Fri<br>9:30 a.m. - 1:00 p.m. Sat","星期一至星期五上午九時三十分至下午四時三十分<br>星期六上午九時三十分至下午一時","N.A.","N.A.","N.A.","N.A.","N.A.","N.A.","N.A.","N.A.","General Postal Services","一般郵政服務","N.A.","N.A.","808836.0","840020.0","22.21818","114.21326","2020-01-06 02:59:54"
"fCzRzUHooe","Post Offices","So Uk Post Office","Shop No. 2, Free Standing Block No. 2 (Near Cherry House), So Uk Estate, Sham Shui Po","郵政局","蘇屋郵政局","深水埗蘇屋邨獨立單位2 號(近櫻桃樓)鋪位編號2","SHAM SHUI PO","深水埗區","9:30 a.m. - 5:00 p.m. Mon to Fri<br>9:30 a.m. - 1:00 p.m. Sat","星期一至星期五上午九時三十分至下午五時<br>星期六上午九時三十分至下午一時","N.A.","N.A.","N.A.","N.A.","N.A.","N.A.","N.A.","N.A.","General Postal Services","一般郵政服務","N.A.","N.A.","822448.0","834174.0","22.34111","114.15655","2019-06-29 07:28:46"
"12x4JDAfUT","Post Offices","Kam Tai Post Office","Shop No. 3, G/F, Kam Tai Shopping Centre, Kam Tai Court, Ma On Shan","郵政局","錦泰郵政局","馬鞍山錦泰苑錦泰商場地下3號","SHA TIN","沙田區","9:30 a.m. - 4:30 p.m. Mon to Fri<br>9:30 a.m. - 1:00 p.m. Sat","星期一至星期五上午九時三十分至下午四時三十分<br>星期六上午九時三十分至下午一時","N.A.","N.A.","N.A.","N.A.","N.A.","N.A.","N.A.","N.A.","General Postal Services","一般郵政服務","N.A.","N.A.","829952.0","840903.0","22.40887","114.22189","2019-06-29 07:22:27"
"RAlzoICCLr","Post Offices","Kwong Yuen Post Office","Shop No. 4, Block 4, Kwong Yuen Shopping Centre, Kwong Yuen Estate, Sha Tin","郵政局","廣源郵政局","沙田廣源邨廣源商場第四座4號","SHA TIN","沙田區","9:30 a.m. - 4:30 p.m. Mon to Fri<br>9:30 a.m. - 1:00 p.m. Sat","星期一至星期五上午九時三十分至下午四時三十分<br>星期六上午九時三十分至下午一時","N.A.","N.A.","N.A.","N.A.","N.A.","N.A.","N.A.","N.A.","General Postal Services","一般郵政服務","N.A.","N.A.","826829.0","840313.0","22.38067","114.21615","2019-05-31 10:41:59"
"kGjOnM66bc","Post Offices","Cheung Sha Wan Post Office","Ground Floor, China Shipbuilding Tower, 646 Cheung Sha Wan Road, Cheung Sha Wan","郵政局","長沙灣郵政局","長沙灣長沙灣道646號中國船舶大廈地下","SHAM SHUI PO","深水埗區","9:30 a.m. - 5:30 p.m. Mon to Fri<br>9:30 a.m. - 1:00 p.m. Sat","星期一至星期五上午九時三十分至下午五時三十分<br>星期六上午九時三十分至下午一時","N.A.","N.A.","N.A.","N.A.","N.A.","N.A.","N.A.","N.A.","General Postal Services<br>Bulk Posting Acceptance & Circular Service<br>P.O. Box<br>Philately","一般郵政服務<br>大量投寄 & 通函郵寄服務<br>郵政信箱<br>集郵","N.A.","N.A.","822192.0","833731.0","22.3388","114.15225","2019-05-28 03:14:29"
"eZzLD5MOV9","Post Offices","Hennessy Road Post Office","Shop 105, 1/F, One Hennessy, 1 Hennessy Road, Wan Chai","郵政局","軒尼詩道郵政局","灣仔軒尼詩道1號 One Hennessy 1樓 105號鋪","WAN CHAI","灣仔區","9:30 a.m. - 5:00 p.m. Mon to Fri<br>9:30 a.m. - 1:00 p.m. Sat","星期一至星期五上午九時三十分至下午五時<br>星期六上午九時三十分至下午一時","N.A.","N.A.","N.A.","N.A.","N.A.","N.A.","N.A.","N.A.","General Postal Services<br>Philately","一般郵政服務<br>集郵","N.A.","N.A.","815468.0","835453.0","22.27808","114.16897","2019-05-28 03:06:43"
"NMySiSrx7p","Post Offices","Wyndham Street Post Office","G/F, Hoseinee House, 69 Wyndham Street","郵政局","雲咸街郵政局","雲咸街69號賀善尼大廈地下","CENTRAL AND WESTERN","中西區","9:30 a.m. - 4:30 p.m. Mon to Fri<br>9:30 a.m. - 1:00 p.m. Sat","星期一至星期五上午九時三十分至下午四時三十分<br>星期六上午九時三十分至下午一時","N.A.","N.A.","N.A.","N.A.","N.A.","N.A.","N.A.","N.A.","General Postal Services","一般郵政服務","N.A.","N.A.","815861.0","834005.0","22.28162","114.15492","2019-02-21 08:34:16"
"tlSt10XVHl","Post Offices","Tin Yiu Post Office","Shop L122, 1/F, Tin Yiu Plaza, Tin Yiu Estate, Tin Shui Wai","郵政局","天耀郵政局","天水圍天耀邨天耀廣場1樓L122號舖位","YUEN LONG","元朗區","9:30 a.m. - 5:00 p.m. Mon to Fri<br>9:30 a.m. - 1:00 p.m. Sat","星期一至星期五上午九時三十分至下午五時<br>星期六上午九時三十分至下午一時","N.A.","N.A.","N.A.","N.A.","N.A.","N.A.","N.A.","N.A.","General Postal Services<br/>Philately","一般郵政服務<br/>集郵","N.A.","N.A.","834586.0","818501.0","22.45063","114.00427","2019-02-21 08:28:13"
"Ys0WT38twK","Post Offices","Ma On Shan Post Office","Unit 2, G/F, MOSTown, 18 On Luk Street, Ma On Shan","郵政局","馬鞍山郵政局","馬鞍山鞍祿街18號新港城地下2號","SHA TIN","沙田區","9:30 a.m. - 5:00 p.m. Mon to Fri<br>9:30 a.m. - 1:00 p.m. Sat","星期一至星期五上午九時三十分至下午五時<br>星期六上午九時三十分至下午一時","N.A.","N.A.","N.A.","N.A.","N.A.","N.A.","N.A.","N.A.","General Postal Services<br>Bulk Posting Acceptance & Circular Service<br>P.O. Box<br>Philately","一般郵政服務<br>大量投寄 & 通函郵寄服務<br>郵政信箱<br>集郵","N.A.","N.A.","831682.0","841976.0","22.42449","114.23232","2018-08-17 05:54:23"
"LvdXVFAo6U","Post Offices","Kowloon Bay Post Office","Shop 1&3, 1/F, Tower 1,Enterprise Square One,9 Sheung Yuet Road,KOWLOON BAY,KOWLOON","郵政局","九龍灣郵政局","九龍九龍灣常悅道9號企業廣場一期1座1樓1&3號舖","KWUN TONG","觀塘區","9:30 a.m. - 5:00 p.m. Mon to Fri<br>9:30 a.m. - 1:00 p.m. Sat","星期一至星期五上午九時三十分至下午五時<br>星期六上午九時三十分至下午一時","N.A.","N.A.","N.A.","N.A.","N.A.","N.A.","N.A.","N.A.","General Postal Services","一般郵政服務","N.A.","N.A.","820336.0","839460.0","22.32203","114.20786","2018-05-02 07:55:51"
"Tw8h0U2aq2","Post Offices","Shek Lei Post Office","Shop 231, 2/F Shek Lei Shopping Centre Phase II, Kwai Chung","郵政局","石籬郵政局","葵涌石籬商場二期2樓231號鋪","KWAI TSING","葵青區","9:30 a.m. - 5:00 p.m. Mon to Fri<br>9:30 a.m. - 1:00 p.m. Sat","星期一至星期五上午九時三十分至下午五時<br>星期六上午九時三十分至下午一時","N.A.","N.A.","N.A.","N.A.","N.A.","N.A.","N.A.","N.A.","General Postal Services","一般郵政服務","N.A.","N.A.","825157.0","832383.0","22.36557","114.13915","2018-02-05 09:33:57"
"qR3wRpFR9m","Post Offices","Wo Che Post Office","Shop No. 313, 3/F, Wo Che Plaza, Wo Che Estate, Shatin","郵政局","禾輋郵政局","沙田禾輋邨禾輋廣場3樓13號舖","SHA TIN","沙田區","9:30 a.m. - 4:30 p.m. Mon to Fri<br>9:30 a.m. - 1:00 p.m. Sat","星期一至星期五上午九時三十分至下午四時三十分<br>星期六上午九時三十分至下午一時","N.A.","N.A.","N.A.","N.A.","N.A.","N.A.","N.A.","N.A.","General Postal Services","一般郵政服務","N.A.","N.A.","827648.0","838160.0","22.38807","114.19525","2018-01-22 07:35:23"
"Dy3TEctxIU","Post Offices","Tseung Kwan O Post Office","Shop No. 14C, G/F, Ming Tak Shopping Centre, Ming Tak Estate, Tseung Kwan O","郵政局","將軍澳郵政局","將軍澳明德邨明德商場地下14C號舖","SAI KUNG","西貢區","9:30 a.m. - 5:00 p.m. Mon to Fri<br>9:30 a.m. - 1:00 p.m. Sat","星期一至星期五上午九時三十分至下午五時<br>星期六上午九時三十分至下午一時","N.A.","N.A.","N.A.","N.A.","N.A.","N.A.","N.A.","N.A.","General Postal Services<br>P.O. Box<br>Philately","一般郵政服務<br>郵政信箱<br>集郵","N.A.","N.A.","819698.0","845721.0","22.31625","114.26862","2017-09-04 01:25:01"
"O7V2mrNHMx","Post Offices","Wah Ming Post Office","Shop G43, G/F, Wah Ming Shopping Centre, Wah Ming Estate, Fanling","郵政局","華明郵政局","新界粉嶺華明路21號華明邨華明商場地下G43號舖","NORTH","北區","9:30 a.m. - 4:30 p.m. Mon to Fri<br>9:30 a.m. - 1:00 p.m. Sat","星期一至星期五上午九時三十分至下午四時三十分<br>星期六上午九時三十分至下午一時","N.A.","N.A.","N.A.","N.A.","N.A.","N.A.","N.A.","N.A.","General Postal Services","一般郵政服務","N.A.","N.A.","838285.0","832566.0","22.48412","114.1409","2017-09-04 01:23:47"
"xeckHCy8Li","Post Offices","Fu Tai Post Office","Shop No.210B, 2/F, Fu Tai Shopping Centre, Fu Tai Estate, Tuen Mun","郵政局","富泰郵政局","屯門富泰邨富泰商場2樓210B號","TUEN MUN","屯門區","9:30 a.m. - 4:30 p.m. Mon to Fri<br>9:30 a.m. - 1:00 p.m. Sat","星期一至星期五上午九時三十分至下午四時三十分<br>星期六上午九時三十分至下午一時","N.A.","N.A.","N.A.","N.A.","N.A.","N.A.","N.A.","N.A.","General Postal Services","一般郵政服務","N.A.","N.A.","830515.0","816344.0","22.41384","113.98336","2017-08-15 10:36:41"
"Vl7EHnwwgx","Post Offices","Tsuen Wan Post Office","1/F, Tsuen Wan Government Offices Building, 38 Sai Lau Kok Road, Tsuen Wan","郵政局","荃灣郵政局","荃灣西樓角路38號荃灣政府合署1樓","TSUEN WAN","荃灣區","9:00 a.m.- 5:00 p.m. Mon to Fri<br>9:00 a.m. - 1:00 p.m. Sat","星期一至星期五上午九時至下午五時<br>星期六上午九時至下午一時","N.A.","N.A.","N.A.","N.A.","N.A.","N.A.","N.A.","N.A.","General Postal Services<br>Bulk Posting Acceptance & Circular Service<br>P.O. Box<br>Philately","一般郵政服務<br>大量投寄 & 通函郵寄服務<br>郵政信箱<br>集郵","","","826122.0","829956.0","22.37428","114.11559","2017-03-22 08:15:52"
"TdkjPQplWG","Post Offices","Kwun Tong Post Office","Unit A & Unit B, Ground Floor, 52 Hung To Road, Kwun Tong, Kowloon","郵政局","觀塘郵政局","觀塘鴻圖道52號地下A及B室","KWUN TONG","觀塘區","9:30 a.m. - 5:00 p.m. Mon to Fri<br>9:30 a.m. - 1:00 p.m. Sat","星期一至星期五上午九時三十分至下午五時<br>星期六上午九時三十分至下午一時","N.A.","N.A.","N.A.","N.A.","N.A.","N.A.","N.A.","N.A.","General Postal Services<br>P.O. Box<br>Philately","一般郵政服務<br>郵政信箱<br>集郵","N.A.","N.A.","819036.0","840934.0","22.31029","114.22216","2017-03-20 08:48:59"
"5xDwYLLHrs","Post Offices","Causeway Bay Post Office","Shops No.1015-1018, 10/F, Windsor House, 311 Gloucester Road, Causeway Bay","郵政局","銅鑼灣郵政局","銅鑼灣告士打道311號皇室堡10樓1015至1018號舖","WAN CHAI","灣仔區","10:30 a.m. - 6:00 p.m. Mon to Fri<br>10:30 a.m. - 2:00 p.m. Sat","星期一至星期五上午十時三十分至下午六時<br>星期六上午十時三十分至下午二時","N.A.","N.A.","N.A.","N.A.","N.A.","N.A.","N.A.","N.A.","General Postal Services","一般郵政服務","N.A.","N.A.","815720.0","837270.0","22.28035","114.1866","2017-03-13 10:06:48"
"FpHbdPfaZh","Post Offices","General Post Office","2 Connaught Place, Central","郵政局","郵政總局","中環康樂廣場2號","CENTRAL AND WESTERN","中西區","8:00 a.m. - 6:00 p.m. Mon to Sat <br> (Philatelic Service: 10:00 a.m. to 6:00 p.m Mon to Sat)<br>12:00 p.m. - 5:00 p.m. Sun & Public Holidays","星期一至星期六上午八時至下午六時 <br> (集郵服務:星期一至六上午十時下午六時)<br>星期日及公眾假期下午十二時至下午五時","N.A.","N.A.","N.A.","N.A.","N.A.","N.A.","N.A.","N.A.","General Postal Services<br>Bulk Posting Acceptance & Circular Service<br>P.O. Box<br>Philately","一般郵政服務<br>大量投寄 & 通函郵寄服務<br>郵政信箱<br>集郵","N.A.","N.A.","816065.0","834468.0","22.28347","114.15941","2017-02-03 08:09:58"
"piXkR5yt3r","Post Offices","Butterfly Post Office","Shop Nos. R146 and R147, G/F, Tip Sum House, Butterfly Estate, Tuen Mun","郵政局","蝴蝶郵政局","屯門蝴蝶邨蝶心樓地下R146至R147號","TUEN MUN","屯門區","9:30 a.m. - 4:30 p.m. Mon to Fri<br>9:30 a.m. - 1:00 p.m. Sat","星期一至星期五上午九時三十分至下午四時三十分<br>星期六上午九時三十分至下午一時","N.A.","N.A.","N.A.","N.A.","N.A.","N.A.","N.A.","N.A.","General Postal Services<br>Philately","一般郵政服務<br>集郵","N.A.","N.A.","826166.0","814239.0","22.37454","113.96298","2016-12-13 05:40:15"
"DOaBTh0U33","Post Offices","Lok Fu Post Office","Shop No. 3152, 3rd floor, Lok Fu Place, Lok Fu Estate","郵政局","樂富郵政局","樂富邨樂富廣場3樓3152號","WONG TAI SIN","黃大仙區","9:30 a.m. - 5:00 p.m. Mon to Fri<br>9:30 a.m. - 1:00 p.m. Sat","星期一至星期五上午九時三十分至下午五時<br>星期六上午九時三十分至下午一時","N.A.","N.A.","N.A.","N.A.","N.A.","N.A.","N.A.","N.A.","General Postal Services","一般郵政服務","N.A.","N.A.","822237.0","837283.0","22.3392","114.18673","2016-08-27 03:43:36"
"16f7HmPkzp","Post Offices","Hung Hom Bay Post Office","G/F, Block 14, Cherry Mansions, Whampoa Garden, Hunghom","郵政局","紅磡灣郵政局","紅磡黃埔花園錦桃苑第十四座地下","KOWLOON CITY","九龍城區","9:30 a.m. - 5:00 p.m. Mon to Fri<br>9:30 a.m. - 1:00 p.m. Sat","星期一至星期五上午九時三十分至下午五時<br>星期六上午九時三十分至下午一時","N.A.","N.A.","N.A.","N.A.","N.A.","N.A.","N.A.","N.A.","General Postal Services<br>P.O. Box<br>Philately","一般郵政服務<br>郵政信箱<br>集郵","N.A.","N.A.","818396.0","837450.0","22.30452","114.18835","2016-03-01 09:19:11"
"cAhn9uWaXh","Post Offices","Ngau Tau Kok Post Office","Shop No.13, On Kay Commercial Centre, Ngau Tau Kok","郵政局","牛頭角郵政局","牛頭角安基商場地下十三號舖","KWUN TONG","觀塘區","9:30 a.m. - 5:00 p.m. Mon to Fri<br>9:30 a.m. - 1:00 p.m. Sat","星期一至星期五上午九時三十分至下午五時<br>星期六上午九時三十分至下午一時","N.A.","N.A.","N.A.","N.A.","N.A.","N.A.","N.A.","N.A.","General Postal Services","一般郵政服務","N.A.","N.A.","820382.0","840413.0","22.32245","114.21711","2016-02-24 09:22:25"
"bJLnpUGsJx","Post Offices","Concorde Road Post Office","G/F, Trade and Industry Tower, 3 Concorde Road, Kai Tak","郵政局","協調道郵政局","啟德協調道3號工業貿易大樓地下","KOWLOON CITY","九龍城區","9:30 a.m. - 5:00 p.m. Mon to Fri<br><br/><br/>9:30 a.m. - 1:00 p.m. Sat","星期一至星期五上午九時三十分至下午五時<br><br/><br/>星期六上午九時三十分至下午一時","N.A.","N.A.","N.A.","N.A.","N.A.","N.A.","N.A.","N.A.","General Postal Services<br><br/><br/>P.O. Box","一般郵政服務<br><br/><br/>郵政信箱","N.A.","N.A.","821510.0","838418.0","22.33264","114.19774","2015-06-29 09:24:57"
"cTw85OXob0","Post Offices","Yau Yat Tsuen Post Office","G/F, 11A Fa Po Street, Yau Yat Tsuen","郵政局","又一村郵政局","又一村花圃街11A號地下","SHAM SHUI PO","深水埗區","9:30 a.m. - 4:30 p.m. Mon to Fri<br>9:30 a.m. - 1:00 p.m. Sat","星期一至星期五上午九時三十分至下午四時三十分<br>星期六上午九時三十分至下午一時","N.A.","N.A.","N.A.","N.A.","N.A.","N.A.","N.A.","N.A.","General Postal Services","一般郵政服務","N.A.","N.A.","821366.0","836151.0","22.33134","114.17574","2015-02-02 08:51:34"
"dxfWz7a6qB","Post Offices","Yau Tong Post Office","Unit 14, G/F, Wing Tong House, Yau Tong Estate, Kowloon","郵政局","油塘郵政局","九龍油塘邨榮塘樓地下14號舖","KWUN TONG","觀塘區","9:30 a.m. - 4:30 p.m. Mon to Fri<br>9:30 a.m. - 1:00 p.m. Sat","星期一至星期五上午九時三十分至下午四時三十分<br>星期六上午九時三十分至下午一時","N.A.","N.A.","N.A.","N.A.","N.A.","N.A.","N.A.","N.A.","General Postal Services","一般郵政服務","N.A.","N.A.","817784.0","842568.0","22.29898","114.23801","2015-02-02 08:51:14"
"wF5KHKaUKH","Post Offices","Wan Tau Tong Post Office","Shop No. CX28, Shopping Centre, Wan Tau Tong Estate, Tai Po","郵政局","運頭塘郵政局","大埔運頭塘邨商場CX28號舖位","TAI PO","大埔區","9:30 a.m. - 4:30 p.m. Mon to Fri<br>9:30 a.m. - 1:00 p.m. Sat","星期一至星期五上午九時三十分至下午四時三十分<br>星期六上午九時三十分至下午一時","N.A.","N.A.","N.A.","N.A.","N.A.","N.A.","N.A.","N.A.","General Postal Services","一般郵政服務","N.A.","N.A.","833627.0","835239.0","22.44206","114.16688","2015-02-02 08:48:37"
"b5MUJE2UKR","Post Offices","Wah Fu Post Office","423-424 Wah Chun House, Wah Fu Estate","郵政局","華富郵政局","華富邨華珍樓地下423至424室","SOUTHERN","南區","9:30 a.m. - 4:30 p.m. Mon to Fri<br>9:30 a.m. - 1:00 p.m. Sat","星期一至星期五上午九時三十分至下午四時三十分<br>星期六上午九時三十分至下午一時","N.A.","N.A.","N.A.","N.A.","N.A.","N.A.","N.A.","N.A.","General Postal Services","一般郵政服務","N.A.","N.A.","812428.0","832070.0","22.25062","114.13615","2015-02-02 08:46:16"
"Jp39C4XfsM","Post Offices","Tsing Yi Post Office","Shop 1, G/F, Hong Kwai House, Cheung Hong Estate","郵政局","青衣郵政局","長康邨康貴樓地下1號舖位","KWAI TSING","葵青區","9:30 a.m. - 4:30 p.m. Mon to Fri<br>9:30 a.m. - 1:00 p.m. Sat","星期一至星期五上午九時三十分至下午四時三十分<br>星期六上午九時三十分至下午一時","N.A.","N.A.","N.A.","N.A.","N.A.","N.A.","N.A.","N.A.","General Postal Services","一般郵政服務","N.A.","N.A.","823312.0","828912.0","22.3489","114.10546","2015-02-02 08:45:59"
"tLtWx0H1W7","Post Offices","Tsuen Wan West Post Office","G/F, Bayview Garden, 633 Castle Peak Road, Tsuen Wan","郵政局","荃灣西郵政局","荃灣青山公路633號灣景花園地下","TSUEN WAN","荃灣區","9:30 a.m. - 4:30 p.m. Mon to Fri<br>9:30 a.m. - 1:00 p.m. Sat","星期一至星期五上午九時三十分至下午四時三十分<br>星期六上午九時三十分至下午一時","N.A.","N.A.","N.A.","N.A.","N.A.","N.A.","N.A.","N.A.","General Postal Services","一般郵政服務","N.A.","N.A.","825692.0","828336.0","22.37039","114.09986","2015-02-02 08:43:45"
"PULdYBTQX1","Post Offices","Tsz Wan Shan Post Office","Shop 330, 3/F., Tsz Wan Shan Shopping Centre, 23 Yuk Wah Street","郵政局","慈雲山郵政局","毓華街23號慈雲山中心3樓330號舖","WONG TAI SIN","黃大仙區","9:30 a.m. - 4:30 p.m. Mon to Fri<br>9:30 a.m. - 1:00 p.m. Sat","星期一至星期五上午九時三十分至下午四時三十分<br>星期六上午九時三十分至下午一時","N.A.","N.A.","N.A.","N.A.","N.A.","N.A.","N.A.","N.A.","General Postal Services","一般郵政服務","N.A.","N.A.","823148.0","838678.0","22.34743","114.20027","2015-02-02 08:43:11"
"zkpPZv3S9u","Post Offices","Tai Kok Tsui Post Office","G/F, 67 Anchor Street, Tai Kok Tsui","郵政局","大角咀郵政局","大角咀晏架街67號地下","YAU TSIM MONG","油尖旺區","9:30 a.m. - 4:30 p.m. Mon to Fri<br>9:30 a.m. - 1:00 p.m. Sat","星期一至星期五上午九時三十分至下午四時三十分<br>星期六上午九時三十分至下午一時","N.A.","N.A.","N.A.","N.A.","N.A.","N.A.","N.A.","N.A.","General Postal Services","一般郵政服務","N.A.","N.A.","820127.0","834902.0","22.32015","114.16362","2015-02-02 08:42:36"
"68QcHy7gRg","Post Offices","Tai Hing Post Office","G/F, Shop 63, Commercial Complex, Tai Hing Estate, Tuen Mun","郵政局","大興郵政局","屯門大興邨商場地下63號舖位","TUEN MUN","屯門區","9:30 a.m. - 4:30 p.m. Mon to Fri<br>9:30 a.m. - 1:00 p.m. Sat","星期一至星期五上午九時三十分至下午四時三十分<br>星期六上午九時三十分至下午一時","N.A.","N.A.","N.A.","N.A.","N.A.","N.A.","N.A.","N.A.","General Postal Services","一般郵政服務","N.A.","N.A.","829285.0","814997.0","22.40272","113.9703","2015-02-02 08:41:44"
"Iyxm7RzsIz","Post Offices","Shek Wai Kok Post Office","Units S8 & S9, G/F, Shek Fong House, Shek Wai Kok Estate, Tsuen Wan","郵政局","石圍角郵政局","荃灣石圍角邨石芳樓地下S8及S9號舖位","TSUEN WAN","荃灣區","9:30 a.m. - 4:30 p.m. Mon to Fri<br>9:30 a.m. - 1:00 p.m. Sat","星期一至星期五上午九時三十分至下午四時三十分<br>星期六上午九時三十分至下午一時","N.A.","N.A.","N.A.","N.A.","N.A.","N.A.","N.A.","N.A.","General Postal Services","一般郵政服務","N.A.","N.A.","826176.0","830850.0","22.37477","114.12427","2015-02-02 08:41:09"
"tBBvRncZzY","Post Offices","Sha Tau Kok Post Office","G/F, Sha Tau Kok Government Offices Building, Sha Tau Kok Main Road","郵政局","沙頭角郵政局","沙頭角公路沙頭角政府合署地下","NORTH","北區","9:00 a.m. - 4:00 p.m. Mon to Fri<br>9:00 a.m. - 12:30 p.m. Sat","星期一至星期五上午九時至下午四時<br>星期六上午九時至下午十二時三十分","N.A.","N.A.","N.A.","N.A.","N.A.","N.A.","N.A.","N.A.","General Postal Services<br>P.O. Box","一般郵政服務<br>郵政信箱","N.A.","N.A.","845104.0","841144.0","22.5457","114.22428","2015-02-02 08:40:14"
"38NqKi2fKZ","Post Offices","San Tin Post Office","1A Castle Peak Road, San Tin Section","郵政局","新田郵政局","青山公路新田段1A號","YUEN LONG","元朗區","9:30 a.m. - 4:30 p.m. Mon to Fri<br>9:30 a.m. - 1:00 p.m. Sat","星期一至星期五上午九時三十分至下午四時三十分<br>星期六上午九時三十分至下午一時","N.A.","N.A.","N.A.","N.A.","N.A.","N.A.","N.A.","N.A.","General Postal Services<br>P.O. Box","一般郵政服務<br>郵政信箱","N.A.","N.A.","839924.0","826108.0","22.4989","114.07814","2015-02-02 08:39:35"
"99f21GdmVD","Post Offices","Sun Chui Post Office","Shop No. 8, G/F, Commercial Centre, Sun Chui Estate, Sha Tin","郵政局","新翠郵政局","沙田新翠邨商場地下8號舖位","SHA TIN","沙田區","9:30 a.m. - 4:30 p.m. Mon to Fri<br>9:30 a.m. - 1:00 p.m. Sat","星期一至星期五上午九時三十分至下午四時三十分<br>星期六上午九時三十分至下午一時","N.A.","N.A.","N.A.","N.A.","N.A.","N.A.","N.A.","N.A.","General Postal Services","一般郵政服務","N.A.","N.A.","825559.0","836710.0","22.3692","114.18117","2015-02-02 08:38:30"
"kelzYMvEDo","Post Offices","Sau Mau Ping Post Office","Shop 25, G/F, Sau Mau Ping Shopping Centre, Sau Mau Ping Estate, Sau Ming Road, Kowloon","郵政局","秀茂坪郵政局","九龍秀明道秀茂坪邨秀茂坪商場地下25號舖","KWUN TONG","觀塘區","9:30 a.m. - 4:30 p.m. Mon to Fri<br>9:30 a.m. - 1:00 p.m. Sat","星期一至星期五上午九時三十分至下午四時三十分<br>星期六上午九時三十分至下午一時","N.A.","N.A.","N.A.","N.A.","N.A.","N.A.","N.A.","N.A.","General Postal Services","一般郵政服務","N.A.","N.A.","820069.0","841953.0","22.31962","114.23205","2015-02-02 08:37:49"
"qUMNxbTugB","Post Offices","Shek Kip Mei Post Office","Shop 132 &134, Ground Floor, Block 19, Shek Kip Mei Estate, Kowloon,(Please use entrance at Woh Chai Street)","郵政局","石硤尾郵政局","九龍石硤尾邨第19座地下132及134號舖 (請使用窩仔街入口)","SHAM SHUI PO","深水埗區","99:30 a.m. - 4:30 p.m. Mon to Fri<br>9:30 a.m. - 1:00 p.m. Sat","星期一至星期五上午九時三十分至下午四時三十分<br>星期六上午九時三十分至下午一時","N.A.","N.A.","N.A.","N.A.","N.A.","N.A.","N.A.","N.A.","General Postal Services","一般郵政服務","N.A.","N.A.","821440.0","835240.0","22.33201","114.1669","2015-02-02 08:35:58"
"89TJfupjYO","Post Offices","Sheung Tak Post Office","Shop 229, 2/F, Sheung Tak Shopping Centre, Sheung Tak Estate, Tseung Kwan O","郵政局","尚德郵政局","將軍澳尚德邨尚德商場2樓229號舖位","SAI KUNG","西貢區","9:30 a.m. - 4:30 p.m. Mon to Fri<br>9:30 a.m. - 1:00 p.m. Sat","星期一至星期五上午九時三十分至下午四時三十分<br>星期六上午九時三十分至下午一時","N.A.","N.A.","N.A.","N.A.","N.A.","N.A.","N.A.","N.A.","General Postal Services","一般郵政服務","N.A.","N.A.","819117.0","844721.0","22.31101","114.25891","2015-02-02 08:35:08"
"xjbePLrvdQ","Post Offices","Shun Lee Post Office","G/F, Shops 17-18, Lee Foo House, Shun Lee Estate","郵政局","順利郵政局","順利邨利富樓地下17及18號舖位","KWUN TONG","觀塘區","9:30 a.m. - 4:30 p.m. Mon to Fri<br>9:30 a.m. - 1:00 p.m. Sat","星期一至星期五上午九時三十分至下午四時三十分<br>星期六上午九時三十分至下午一時","N.A.","N.A.","N.A.","N.A.","N.A.","N.A.","N.A.","N.A.","General Postal Services","一般郵政服務","N.A.","N.A.","821207.0","841426.0","22.32989","114.22694","2015-02-02 08:34:30"
"aPklDBA3YB","Post Offices","Sha Kok Post Office","Shop No. 245, 2/F, Sha Kok Shopping Centre, Sha Kok Estate, Shatin","郵政局","沙角郵政局","沙田沙角邨沙角商場2樓245號舖","SHA TIN","沙田區","9:30 a.m. - 4:30 p.m. Mon to Fri<br>9:30 a.m. - 1:00 p.m. Sat","期一至星期五上午九時三十分至下午四時三十分<br>星期六上午九時三十分至下午一時","N.A.","N.A.","N.A.","N.A.","N.A.","N.A.","N.A.","N.A.","General Postal Services","一般郵政服務","N.A.","N.A.","826471.0","837957.0","22.37744","114.19327","2015-02-02 08:34:13"
"qxrMbowjt3","Post Offices","Repulse Bay Post Office","Unit C, G/F, 2H South Bay Road","郵政局","淺水灣郵政局","南灣道2H號地下C號舖位","SOUTHERN","南區","9:30 a.m. - 4:30 p.m. Mon to Fri<br>9:30 a.m. - 1:00 p.m. Sat","星期一至星期五上午九時三十分至下午四時三十分<br>星期六上午九時三十分至下午一時","N.A.","N.A.","N.A.","N.A.","N.A.","N.A.","N.A.","N.A.","General Postal Services","一般郵政服務","N.A.","N.A.","810996.0","838509.0","22.23769","114.19861","2015-02-02 08:33:18"
"ye5lZtSDhr","Post Offices","Po Lam Post Office","RB1, G/F, Restaurant Block, Po Lam Estate, Tseung Kwan O","郵政局","寶琳郵政局","將軍澳寶琳酒樓大樓地下RB1號","SAI KUNG","西貢區","9:30 a.m. - 4:30 p.m. Mon to Fri<br>9:30 a.m. - 1:00 p.m. Sat","星期一至星期五上午九時三十分至下午四時三十分<br>星期六上午九時三十分至下午一時","N.A.","N.A.","N.A.","N.A.","N.A.","N.A.","N.A.","N.A.","General Postal Services","一般郵政服務","N.A.","N.A.","820652.0","844432.0","22.32487","114.25612","2015-02-02 08:31:40"
"xxBo0cMqHW","Post Offices","Perkins Road Post Office","G/F, 5 Perkins Road, Jardine's Lookout","郵政局","白建時道郵政局","渣甸山白建時道5號地下","WAN CHAI","灣仔區","9:30 a.m. - 4:30 p.m. Mon to Fri<br>9:30 a.m. - 1:00 p.m. Sat","星期一至星期五上午九時三十分至下午四時三十分<br>星期六上午九時三十分至下午一時","N.A.","N.A.","N.A.","N.A.","N.A.","N.A.","N.A.","N.A.","General Postal Services","一般郵政服務","N.A.","N.A.","814631.0","837787.0","22.27052","114.19161","2015-02-02 08:24:16"
"J9L0bfxhGt","Post Offices","Pok Fu Lam Post Office","G/F, Block H-19, Fu Wing Yuen, Chi Fu Fa Yuen, Pok Fu Lam","郵政局","薄扶林郵政局","薄扶林置富花園富榮苑第H-19座地下","SOUTHERN","南區","9:30 a.m. - 4:30 p.m. Mon to Fri<br>9:30 a.m. - 1:00 p.m. Sat","星期一至星期五上午九時三十分至下午四時三十分<br>星期六上午九時三十分至下午一時","N.A.","N.A.","N.A.","N.A.","N.A.","N.A.","N.A.","N.A.","General Postal Services","一般郵政服務","N.A.","N.A.","813327.0","832173.0","22.25874","114.13715","2015-02-02 08:23:44"
"nFx9sILSe7","Post Offices","Peak Post Office","Shop P116, P1, the Peak Tower, 128 Peak Road, the Peak","郵政局","山頂郵政局","香港山頂道128號凌霄閣P1層P116號舖","CENTRAL AND WESTERN","中西區","11:00 a.m. - 6:00 p.m. Mon to Fri<br>11:00 a.m. - 2:30 p.m. Sat","星期一至星期五上午十一時至下午六時<br>星期六上午十一時至下午二時三十分","N.A.","N.A.","N.A.","N.A.","N.A.","N.A.","N.A.","N.A.","General Postal Services<br>Philately","一般郵政服務<br>集郵","N.A.","N.A.","814712.0","833486.0","22.27125","114.14988","2015-02-02 08:16:26"
"UyH5RotT0b","Post Offices","Oi Man Post Office","Shop No. G13, G/F, Oi Man Shopping Centre, Oi Man Estate","郵政局","愛民郵政局","愛民邨愛民商場地下G13號舖位","KOWLOON CITY","九龍城區","9:30 a.m. - 4:30 p.m. Mon to Fri<br>9:30 a.m. - 1:00 p.m. Sat","星期一至星期五上午九時三十分至下午四時三十分<br>星期六上午九時三十分至下午一時","N.A.","N.A.","N.A.","N.A.","N.A.","N.A.","N.A.","N.A.","General Postal Services","一般郵政服務","N.A.","N.A.","819216.0","836462.0","22.31192","114.17876","2015-02-02 08:13:34"
"bibGDYnuzx","Post Offices","Ngau Chi Wan Post Office","Shop No. A215. G/F, Commercial Complex, Phase IIB, Choi Wan (I) Estate","郵政局","牛池灣郵政局","彩雲(一)邨彩雲商場二期地下A215","WONG TAI SIN","黃大仙區","9:30 a.m. - 4:30 p.m. Mon to Fri<br>9:30 a.m. - 1:00 p.m. Sat","星期一至星期五上午九時三十分至下午四時三十分<br>星期六上午九時三十分至下午一時","N.A.","N.A.","N.A.","N.A.","N.A.","N.A.","N.A.","N.A.","General Postal Services","一般郵政服務","N.A.","N.A.","821534.0","840160.0","22.33285","114.21465","2015-02-02 08:11:04"
"DN1EPkdl2m","Post Offices","Mei Lam Post Office","Shop No. 35-37, 1/F, Mei Lam Commercial Centre, Mei Lam Estate, Sha Tin","郵政局","美林郵政局","沙田美林邨美林商場1樓35至37號舖位","SHA TIN","沙田區","9:30 a.m. - 4:30 p.m. Mon to Fri<br>9:30 a.m. - 1:00 p.m. Sat","星期一至星期五上午九時三十分至下午四時三十分<br>星期六上午九時三十分至下午一時","N.A.","N.A.","N.A.","N.A.","N.A.","N.A.","N.A.","N.A.","General Postal Services","一般郵政服務","N.A.","N.A.","826557.0","836214.0","22.37822","114.17635","2015-02-02 07:53:47"
"VFxt01Emxp","Post Offices","Lei Tung Post Office","Shop No. 303, 305 & 307,Lei Tung Commercial Centre, Phase I, Lei Tung Estate, Ap Lei Chau","郵政局","利東郵政局","鴨脷洲利東邨利東商場第一期三樓303,305及307號舖位","SOUTHERN","南區","9:30 a.m. - 4:30 p.m. Mon to Fri<br>9:30 a.m. - 1:00 p.m. Sat","星期一至星期五上午九時三十分至下午四時三十分<br>星期六上午九時三十分至下午一時","N.A.","N.A.","N.A.","N.A.","N.A.","N.A.","N.A.","N.A.","General Postal Services","一般郵政服務","N.A.","N.A.","811370.0","834099.0","22.24107","114.15583","2015-02-02 07:52:42"
"32LOmqoGFW","Post Offices","Lei Muk Shue Post Office","G/F, Wing B, Chung Shue House, Lei Muk Shue Estate","郵政局","梨木樹郵政局","梨木樹邨松樹樓B翼地下","TSUEN WAN","荃灣區","9:30 a.m. - 4:30 p.m. Mon to Fri<br>9:30 a.m. - 1:00 p.m. Sat","星期一至星期五上午九時三十分至下午四時三十分<br>星期六上午九時三十分至下午一時","N.A.","N.A.","N.A.","N.A.","N.A.","N.A.","N.A.","N.A.","General Postal Services","一般郵政服務","N.A.","N.A.","826656.0","832046.0","22.3791","114.13588","2015-02-02 07:50:24"
"95v9nAbysq","Post Offices","Lai Kok Post Office","Shops 5 & 6, 1st level, Lai Huen House, Lai Kok Estate","郵政局","麗閣郵政局","麗閣邨麗萱樓第1層5及6號舖位","SHAM SHUI PO","深水埗區","9:30 a.m. - 4:30 p.m. Mon to Fri<br>9:30 a.m. - 1:00 p.m. Sat","星期一至星期五上午九時三十分至下午四時三十分<br>星期六上午九時三十分至下午一時","N.A.","N.A.","N.A.","N.A.","N.A.","N.A.","N.A.","N.A.","General Postal Services","一般郵政服務","N.A.","N.A.","821462.0","834155.0","22.3322","114.15636","2015-02-02 07:50:06"
"UxK6n7QvoT","Post Offices","Lai King Post Office","G/F, Lok King House, Lai King Estate, Kwai Chung","郵政局","荔景郵政局","葵涌荔景邨樂景樓地下","KWAI TSING","葵青區","9:30 a.m. - 4:30 p.m. Mon to Fri<br>9:30 a.m. - 1:00 p.m. Sat","星期一至星期五上午九時三十分至下午四時三十分<br>星期六上午九時三十分至下午一時","N.A.","N.A.","N.A.","N.A.","N.A.","N.A.","N.A.","N.A.","General Postal Services","一般郵政服務","N.A.","N.A.","823029.0","831058.0","22.34635","114.1263","2015-02-02 07:43:57"
"OxQVcrT3Xa","Post Offices","Leung King Post Office","Shop L105,Level 1, Leung King Shopping Centre, Leung King Estate, Tuen Mun","郵政局","良景郵政局","屯門良景邨良景商場L1層L105號舖","TUEN MUN","屯門區","9:30 a.m. - 4:30 p.m. Mon to Fri<br>9:30 a.m. - 1:00 p.m. Sat","星期一至星期五上午九時三十分至下午四時三十分<br>星期六上午九時三十分至下午一時","N.A.","N.A.","N.A.","N.A.","N.A.","N.A.","N.A.","N.A.","General Postal Services","一般郵政服務","N.A.","N.A.","829690.0","814225.0","22.40637","113.96279","2015-02-02 07:41:38"
"HCKKFTuwuP","Post Offices","Lee On Post Office","Shop No.104, LG/1, Lee On Shopping Centre, Lee On Estate, Ma On Shan","郵政局","利安郵政局","馬鞍山利安邨利安商場LG1層104號舖","SHA TIN","沙田區","9:30 a.m. - 4:30 p.m. Mon to Fri<br>9:30 a.m. - 1:00 p.m. Sat","星期一至星期五上午九時三十分至下午四時三十分<br>星期六上午九時三十分至下午一時","N.A.","N.A.","N.A.","N.A.","N.A.","N.A.","N.A.","N.A.","General Postal Services","一般郵政服務","N.A.","N.A.","831901.0","842871.0","22.42646","114.24101","2015-02-02 07:15:52"
"DMfbL27aWA","Post Offices","Kwai Chung Post Office","Unit 11, Chau Kwai House, Kwai Chung Estate, Kwai Chung","郵政局","葵涌郵政局","葵涌葵涌邨秋葵樓地下11號舖位","KWAI TSING","葵青區","9:30 a.m. - 4:30 p.m. Mon to Fri<br>9:30 a.m. - 1:00 p.m. Sat","星期一至星期五上午九時三十分至下午四時三十分<br>星期六上午九時三十分至下午一時","N.A.","N.A.","N.A.","N.A.","N.A.","N.A.","N.A.","N.A.","General Postal Services","一般郵政服務","N.A.","N.A.","825350.0","831458.0","22.36731","114.13017","2015-02-02 07:12:43"
"Yg837xpTRw","Post Offices","Kwai Shing Post Office","Unit No. 1A, G/F, Block 7, Kwai Shing West Estate","郵政局","葵盛郵政局","葵盛西邨第七座地下1A號舖","KWAI TSING","葵青區","9:30 a.m. - 4:30 p.m. Mon to Fri<br>9:30 a.m. - 1:00 p.m. Sat","星期一至星期五上午九時三十分至下午四時三十分<br>星期六上午九時三十分至下午一時","N.A.","N.A.","N.A.","N.A.","N.A.","N.A.","N.A.","N.A.","General Postal Services","一般郵政服務","N.A.","N.A.","824666.0","830756.0","22.36113","114.12336","2015-02-02 07:01:08"
"VTvvGJxtKs","Post Offices","Kam Tin Post Office","G/F, Kam Tin Government Offices Building, Kam Tin Main Road","郵政局","錦田郵政局","錦田大馬路錦田政府合署地下","YUEN LONG","元朗區","9:30 a.m. - 4:30 p.m. Mon to Fri<br>9:30 a.m. - 1:00 p.m. Sat","星期一至星期五上午九時三十分至下午四時三十分<br>星期六上午九時三十分至下午一時","N.A.","N.A.","N.A.","N.A.","N.A.","N.A.","N.A.","N.A.","General Postal Services<br>P.O. Box","一般郵政服務<br>郵政信箱","N.A.","N.A.","833400.0","824913.0","22.43997","114.06657","2015-02-02 07:00:18"
"oJg57p2i3E","Post Offices","Hin Keng Post Office","No. 202, 1/F, Wing A, Hin Keng Estate Commercial Centre, Hin Keng Estate, Sha Tin","郵政局","顯徑郵政局","沙田顯徑邨顯徑邨商場中心A翼1樓202號","SHA TIN","沙田區","9:30 a.m. - 4:30 p.m. Mon to Fri<br>9:30 a.m. - 1:00 p.m. Sat","星期一至星期五上午九時三十分至下午四時三十分<br>星期六上午九時三十分至下午一時","N.A.","N.A.","N.A.","N.A.","N.A.","N.A.","N.A.","N.A.","General Postal Services<br>Philately","一般郵政服務<br>集郵","N.A.","N.A.","824930.0","835761.0","22.36352","114.17195","2015-02-02 06:59:20"
"fTn9UkSUye","Post Offices","Ho Man Tin Post Office","Unit 2, G/F, Tim Man House, Homantin Estate, Homantin","郵政局","何文田郵政局","何文田邨恬文樓地下2號","KOWLOON CITY","九龍城區","9:30 a.m. - 4:30 p.m. Mon to Fri<br>9:30 a.m. - 1:00 p.m. Sat","星期一至星期五上午九時三十分至下午四時三十分<br>星期六上午九時三十分至下午一時","N.A.","N.A.","N.A.","N.A.","N.A.","N.A.","N.A.","N.A.","General Postal Services","一般郵政服務","N.A.","N.A.","819615.0","836815.0","22.31553","114.18218","2015-02-02 06:58:17"
"8jcyUQADQp","Post Offices","Heng On Post Office","Shop No. 232, Level 2, Heng On Commercial Centre, Heng On Estate, Ma On Shan, Sha Tin","郵政局","恆安郵政局","沙田馬鞍山恆安邨恆安商場第2層232號舖位","SHA TIN","沙田區","9:30 a.m. - 4:30 p.m. Mon to Fri<br>9:30 a.m. - 1:00 p.m. Sat","星期一至星期五上午九時三十分至下午四時三十分<br>星期六上午九時三十分至下午一時","N.A.","N.A.","N.A.","N.A.","N.A.","N.A.","N.A.","N.A.","General Postal Services","一般郵政服務","N.A.","N.A.","830818.0","841518.0","22.41669","114.22787","2015-02-02 06:57:36"
"n9EGII3Ij4","Post Offices","Heng Fa Chuen Post Office","G/F, West Car Park Block, Heng Fa Chuen","郵政局","杏花邨郵政局","杏花邨西翼停車場地下","EASTERN","東區","9:30 a.m. - 4:30 p.m. Mon to Fri<br>9:30 a.m. - 1:00 p.m. Sat","星期一至星期五上午九時三十分至下午四時三十分<br>星期六上午九時三十分至下午一時","N.A.","N.A.","N.A.","N.A.","N.A.","N.A.","N.A.","N.A.","General Postal Services","一般郵政服務","N.A.","N.A.","815519.0","842612.0","22.27852","114.23843","2015-02-02 06:56:48"
"6Bk4ChbJaS","Post Offices","Granville Road Post Office","Shop G3, G/F, Albion Plaza, 2-6 Granville Road","郵政局","加連威老道郵政局","加連威老道2至6號愛賓商業大廈地下G3號舖位","YAU TSIM MONG","油尖旺區","9:30 a.m. - 4:30 p.m. Mon to Fri<br>9:30 a.m. - 1:00 p.m. Sat","星期一至星期五上午九時三十分至下午四時三十分<br>星期六上午九時三十分至下午一時","N.A.","N.A.","N.A.","N.A.","N.A.","N.A.","N.A.","N.A.","General Postal Services<br>Philately","一般郵政服務<br>集郵","N.A.","N.A.","817851.0","835827.0","22.2996","114.17259","2015-02-02 06:55:56"
"Nan79hqXu9","Post Offices","Fu Shin Post Office","Shop No. F106, 1/F, Fu Shin Shopping Centre, Fu Shin Estate, Tai Po","郵政局","富善郵政局","大埔富善村富善商場1樓F106號","TAI PO","大埔區","9:30 a.m. - 4:30 p.m. Mon to Fri<br>9:30 a.m. - 1:00 p.m. Sat","星期一至星期五上午九時三十分至下午四時三十分<br>星期六上午九時三十分至下午一時","N.A.","N.A.","N.A.","N.A.","N.A.","N.A.","N.A.","N.A.","General Postal Services","一般郵政服務","N.A.","N.A.","834936.0","835984.0","22.45388","114.17412","2015-02-02 06:55:12"
"bGlF2s64qs","Post Offices","Fu Shan Post Office","G/F, 1-2 Fu Shun House, Fu Shan Estate","郵政局","富山郵政局","富山邨富信樓1至2號地下","WONG TAI SIN","黃大仙區","9:30 a.m. - 4:30 p.m. Mon to Fri<br>9:30 a.m. - 1:00 p.m. Sat","星期一至星期五上午九時三十分至下午四時三十分<br>星期六上午九時三十分至下午一時","N.A.","N.A.","N.A.","N.A.","N.A.","N.A.","N.A.","N.A.","General Postal Services","一般郵政服務","N.A.","N.A.","822622.0","839592.0","22.34268","114.20914","2015-02-02 06:47:13"
"0nfszvuVYY","Post Offices","Fairview Park Post Office","G/F, Shop Unit No. 3D, Town Centre, Ginkgo Road, Fairview Park, Yuen Long","郵政局","錦繡花園郵政局","元朗錦繡花園銀杏路市中心地下3D號舖位","YUEN LONG","元朗區","9:30 a.m. - 4:30 p.m. Mon to Fri<br>9:30 a.m. - 1:00 p.m. Sat","星期一至星期五上午九時三十分至下午四時三十分<br>星期六上午九時三十分至下午一時","N.A.","N.A.","N.A.","N.A.","N.A.","N.A.","N.A.","N.A.","General Postal Services","一般郵政服務","N.A.","N.A.","837554.0","822691.0","22.47747","114.04495","2015-02-02 06:45:40"
"1c2FPaNxaN","Post Offices","Choi Ming Post Office","Shop No. 240, G/F, Choi Ming Shopping Centre Extension, Choi Ming Court, Tseung Kwan O","郵政局","彩明郵政局","將軍澳彩明苑彩明商場擴展部份地下240號舖位","SAI KUNG","西貢區","9:30 a.m. - 4:30 p.m. Mon to Fri<br>9:30 a.m. - 1:00 p.m. Sat","星期一至星期五上午九時三十分至下午四時三十分<br>星期六上午九時三十分至下午一時","N.A.","N.A.","N.A.","N.A.","N.A.","N.A.","N.A.","N.A.","General Postal Services","一般郵政服務","N.A.","N.A.","818562.0","843928.0","22.306","114.25121","2015-02-02 06:45:15"
"pzzo50zx3p","Post Offices","Chuk Yuen Post Office","Shop No. 10, Chuk Yuen Shopping Centre, Chuk Yuen (South) Estate","郵政局","竹園郵政局","竹園(南)邨竹園商場S10號舖位","WONG TAI SIN","黃大仙區","9:30 A.M. - 4:30 P.M. MON TO FRI (CLOSED ON WED)<br>9:30 A.M. - 1:00 P.M. SAT","星期一至星期五上午九時三十分至下午四時三十分 (星期三休息)<br>星期六上午九時三十分至下午一時","N.A.","N.A.","N.A.","N.A.","N.A.","N.A.","N.A.","N.A.","General Postal Services","一般郵政服務","N.A.","N.A.","822833.0","837901.0","22.34459","114.19273","2015-02-02 06:38:01"
"77t9dyNu5a","Post Offices","Chai Wan Post Office","G/F, Administration Building, Yue Wan Estate, Chai Wan Road","郵政局","柴灣郵政局","柴灣道漁灣邨行政大樓","EASTERN","東區","9:30 a.m. - 4:30 p.m. Mon to Fri<br>9:30 a.m. - 1:00 p.m. Sat","星期一至星期五上午九時三十分至下午四時三十分<br>星期六上午九時三十分至下午一時","N.A.","N.A.","N.A.","N.A.","N.A.","N.A.","N.A.","N.A.","General Postal Services","一般郵政服務","N.A.","N.A.","814031.0","842911.0","22.26509","114.24133","2015-02-02 06:35:46"
"Va1Qap2yaa","Post Offices","Choi Hung Chuen Post Office","G/F, 9B Kam Wah House, Choi Hung Estate","郵政局","彩虹邨郵政局","彩虹邨金華樓地下9B舖位","WONG TAI SIN","黃大仙區","9:30 a.m. - 4:30 p.m. Mon to Fri<br>9:30 a.m. - 1:00 p.m. Sat","星期一至星期五上午九時三十分至下午四時三十分<br>星期六上午九時三十分至下午一時","N.A.","N.A.","N.A.","N.A.","N.A.","N.A.","N.A.","N.A.","General Postal Services","一般郵政服務","N.A.","N.A.","821746.0","839292.0","22.33477","114.20623","2015-02-02 06:35:21"
"sL2yaTKnL2","Post Offices","Cheung Fat Post Office","Units 113-114, G/F, Chun Fat House, Cheung Fat Estate, Tsing Yi","郵政局","長發郵政局","青衣長發邨俊發樓地下113及114號舖位","KWAI TSING","葵青區","9:30 a.m. - 4:30 p.m. Mon to Fri<br>9:30 a.m. - 1:00 p.m. Sat","星期一至星期五上午九時三十分至下午四時三十分<br>星期六上午九時三十分至下午一時","N.A.","N.A.","N.A.","N.A.","N.A.","N.A.","N.A.","N.A.","General Postal Services<br>Philately","一般郵政服務<br>集郵","N.A.","N.A.","824755.0","828637.0","22.36193","114.10279","2015-02-02 06:34:27"
"4eOi0wtc2e","Post Offices","Cyberport Post Office","Shops 5-8, Level 1, Service Annex, Cyberport, 100 Cyberport Road, Hong Kong","郵政局","數碼港郵政局","香港數碼港道100號數碼港零售服務中心一樓5至8號舖","SOUTHERN","南區","9:30 a.m. - 4:30 p.m. Mon to Fri<br>9:30 a.m. - 1:00 p.m. Sat","星期一至星期五上午九時三十分至下午四時三十分<br>星期六上午九時三十分至下午一時","N.A.","N.A.","N.A.","N.A.","N.A.","N.A.","N.A.","N.A.","General Postal Services<br>Philately","一般郵政服務<br>集郵","N.A.","N.A.","813649.0","831412.0","22.26164","114.12976","2015-02-02 06:33:36"
"PgkMGo4rE5","Post Offices","Ap Lei Chau Post Office","G/F, Shop 13-16, Lei Ning House, Ap Lei Chau Estate","郵政局","鴨脷洲郵政局","鴨脷洲邨利寧樓地下13至16號舖位","SOUTHERN","南區","9:30 a.m. - 4:30 p.m. Mon to Fri<br>9:30 a.m. - 1:00 p.m. Sat","星期一至星期五上午九時三十分至下午四時三十分<br>星期六上午九時三十分至下午一時","N.A.","N.A.","N.A.","N.A.","N.A.","N.A.","N.A.","N.A.","General Postal Services","一般郵政服務","N.A.","N.A.","811816.0","833449.0","22.24509","114.14953","2015-02-02 06:25:13"
"NZL1i7UYSR","Post Offices","Central Mail Centre","1 Wang Chin Street, Kowloon Bay","郵政局","中央郵件中心","九龍灣宏展街一號中央郵件中心地下","KWUN TONG","觀塘區","11:00 a.m. – 5:00 p.m. Mon – Fri<br><br/><br/>11:00 a.m. – 2:00 p.m. Sat","星期一至星期五上午十一時至下午五時<br><br/><br/>星期六上午十一時至下午二時","N.A.","N.A.","N.A.","N.A.","N.A.","N.A.","N.A.","N.A.","All kind of bulk mail postings","所有類別的大量投寄郵件服務","N.A.","N.A.","820498.0","839170.0","22.3235","114.20504","2014-09-23 02:38:03"
"LXWhLu6Lbb","Post Offices","Bulk Air Mail Centre","16/F, Southeast Industrial Building, 611-619 Castle Peak Road, Tsuen Wan","郵政局","大量投寄空郵中心","荃灣青山公路611-619號東南工業中心16樓","TSUEN WAN","荃灣區","9:30 a.m. - 5:00 p.m. Mon – Fri<br><br/><br/>9:30 a.m. - 1:00 p.m. Sat","星期一至星期五上午九時三十分至下午五時<br><br/><br/>星期六上午九時三十分至下午一時","N.A.","N.A.","N.A.","N.A.","N.A.","N.A.","N.A.","N.A.","Bulk Air Mail","大量投寄空郵服務","N.A.","N.A.","826006.0","828712.0","22.37322","114.10351","2014-09-23 02:36:48"
"0qg1SpTLmc","Post Offices","Air Mail Centre","9 Catering Road West, Chek Lap Kok","郵政局","空郵中心","香港大嶼山赤鱲角航膳西路9號","ISLANDS DISTRICT","離島區","9:30 a.m. - 4:00 p.m. Mon – Fri<br><br/><br/>9:30 a.m. - 1:00 p.m. Sat<br><br/><br/>1:00 p.m. – 4:00 p.m. Sun & Public Holidays","星期一至星期五上午九時三十分至下午四時<br><br/><br/>星期六上午九時三十分至下午一時<br><br/><br/>星期日及公眾假期下午一時至四時","N.A.","N.A.","N.A.","N.A.","N.A.","N.A.","N.A.","N.A.","iMailR Service","易網郵服務","N.A.","N.A.","818208.0","810821.0","22.30263","113.92992","2014-09-23 02:35:20"
"Omj7GIUifU","Post Offices","Tsim Sha Tsui Post Office","G & 1/F, Hermes House, 10 Middle Road","郵政局","尖沙咀郵政局","中間道10號國際電信大廈地下及1樓","YAU TSIM MONG","油尖旺區","9:00 a.m. - 6:00 p.m. Mon to Sat","星期一至星期六上午九時至下午六時","N.A.","N.A.","N.A.","N.A.","N.A.","N.A.","N.A.","N.A.","General Postal Services<br>Bulk Posting Acceptance & Circular Service<br>P.O. Box<br>Philately","一般郵政服務<br>大量投寄 & 通函郵寄服務<br>郵政信箱<br>集郵","N.A.","N.A.","817444.0","835900.0","22.29592","114.1733","2014-05-24 01:16:09"
"InhDXOfCfU","Post Offices","Sha Tin Central Post Office","1/F Sha Tin Government Offices, 1 Sheung Wo Che Road","郵政局","沙田中央郵政局","沙田上禾輋路一號沙田政府合署一樓","SHA TIN","沙田區","9:00 a.m. - 5:00 p.m. Mon to Fri<br>9:00 a.m. - 1:00 p.m. Sat","星期一至星期五上午九時至下午五時<br>星期六上午九時至下午一時","N.A.","N.A.","N.A.","N.A.","N.A.","N.A.","N.A.","N.A.","General Postal Services<br>Bulk Posting Acceptance & Circular Service<br>P.O. Box<br>Philately","一般郵政服務<br>大量投寄 & 通函郵寄服務<br>郵政信箱<br>集郵","","","827369.0","837301.0","22.38555","114.18691","2012-01-06 01:32:29"
"XT0QftKHqF","Post Offices","City One Shatin Post Office","G/F, Fortune City One, G1-A Ngan Shing Street, Block B, Sha Tin","郵政局","沙田第一城郵政局","沙田銀城街置富第一城G1-A號鋪位","SHA TIN","沙田區","9:30 a.m. - 5:00 p.m. Mon to Fri<br>9:30 a.m. - 1:00 p.m. Sat","星期一至星期五上午九時三十分至下午五時<br>星期六上午九時三十分至下午一時","N.A.","N.A.","N.A.","N.A.","N.A.","N.A.","N.A.","N.A.","General Postal Services<br>Philately","一般郵政服務<br>集郵","","","827461.0","838992.0","22.38638","114.20333","2011-08-29 10:02:30"
"D0nl17OXfO","Post Offices","Fanling Post Office","G/F, North District Government Offices Building, 3 Pik Fung Road, Fanling","郵政局","粉嶺郵政局","粉嶺璧峰路3號北區政府合署地下","NORTH","北區","9:30 a.m. - 5:00 p.m. Mon to Fri<br>9:30 a.m. - 1:00 p.m. Sat","星期一至星期五上午九時三十分至下午五時<br>星期六上午九時三十分至下午一時","N.A.","N.A.","N.A.","N.A.","N.A.","N.A.","N.A.","N.A.","General Postal Services<br>P.O. Box","一般郵政服務<br>郵政信箱","","","839457.0","832289.0","22.4947","114.13821","2011-07-27 04:27:45"
"Zlzv7o6H5R","Post Offices","Airport Post Office","7T 082, Passenger Terminal Building, 1 Cheong Hong Road, Hong Kong International Airport, Lantau Island","郵政局","機場郵政局","大嶼山暢航路一號國際機場客運大廈7T/082舖位","ISLANDS DISTRICT","離島區","8:00 a.m. - 8:30 p.m. Mon to Sat<br>8:00 a.m. - 5:00 p.m. Sun & Public Holidays","星期一至星期六上午八時至晚上八時三十分<br>星期日及公眾假期上午八時至下午五時","N.A.","N.A.","N.A.","N.A.","N.A.","N.A.","N.A.","N.A.","General Postal Services<br>Philately","一般郵政服務<br>集郵","","","819631.0","811349.0","22.31549","113.93502","2011-06-24 09:05:15"
"PGtlzX1Lca","Post Offices","Yuen Long Post Office","Shop B, G/F, 8 Yuen Long Pau Cheung Square, Yuen Long","郵政局","元朗郵政局","元朗炮仗坊8號地下B舖","YUEN LONG","元朗區","9:00 a.m. - 5:00 p.m. Mon to Fri<br>9:00 a.m. - 1:00 p.m. Sat","星期一至星期五上午九時至下午五時<br>星期六上午九時至下午一時","N.A.","N.A.","N.A.","N.A.","N.A.","N.A.","N.A.","N.A.","General Postal Services<br>Bulk Posting Acceptance & Circular Service<br>P.O. Box<br>Philately","一般郵政服務<br>大量投寄 & 通函郵寄服務<br>郵政信箱<br>集郵","","","834034.0","821052.0","22.44567","114.02906","2010-05-26 08:11:36"
"7LPbF8qUXa","Post Offices","Mei Foo Sun Chuen Post Office","Shop No. MF115, Ground Level, West Rail Mei Foo Station","郵政局","美孚新邨郵政局","西鐵美孚站地下MF115號舖","SHAM SHUI PO","深水埗區","9:30 a.m. - 5:00 p.m. Mon to Fri<br>9:30 a.m. - 1:00 p.m. Sat","星期一至星期五上午九時三十分至下午五時<br>星期六上午九時三十分至下午一時","N.A.","N.A.","N.A.","N.A.","N.A.","N.A.","N.A.","N.A.","General Postal Services","一般郵政服務","","","822105.0","832240.0","22.33801","114.13777","2010-05-24 06:27:04"
"SBDl7roPrV","Post Offices","Aberdeen Post Office","G/F, Kam Fung Building, 171 Aberdeen Main Road, Aberdeen","郵政局","香港仔郵政局","香港仔大道171號金豐大廈地下","SOUTHERN","南區","9:30 a.m. - 5:00 p.m. Mon to Fri<br>9:30 a.m. - 1:00 p.m. Sat","星期一至星期五上午九時三十分至下午五時<br>星期六上午九時三十分至下午一時","N.A.","N.A.","N.A.","N.A.","N.A.","N.A.","N.A.","N.A.","General Postal Services<br>Bulk Posting Acceptance & Circular Service<br>P.O. Box<br>Philately","一般郵政服務<br>大量投寄 & 通函郵寄服務<br>郵政信箱<br>集郵","","","812183.0","834060.0","22.24841","114.15545","2010-04-29 09:10:00"
"dJQLimjHl7","Post Offices","Kowloon East Post Office","G/F, Kowloon East Government Offices Building, 12 Lei Yue Mun Road, Kwun Tong","郵政局","東九龍郵政局","觀塘鯉魚門道12號東九龍政府合署地下","KWUN TONG","觀塘區","9:30 a.m. - 5:30 p.m. Mon to Fri<br>9:30 a.m. - 1:00 p.m. Sat","星期一至星期五上午九時三十分至下午五時三十分<br>星期六上午九時三十分至下午一時","N.A.","N.A.","N.A.","N.A.","N.A.","N.A.","N.A.","N.A.","General Postal Services<br>Bulk Posting Acceptance & Circular Service<br>P.O. Box","一般郵政服務<br>大量投寄 & 通函郵寄服務<br>郵政信箱","","","818954.0","841725.0","22.30955","114.22984","2010-04-01 07:37:30"
"IDEVag8adP","Post Offices","Kennedy Town Post Office","G/F, Kennedy Town Community Complex, 12 Rock Hill Street, Kennedy Town","郵政局","堅尼地城郵政局","香港堅尼地城石山街12號堅尼地城社區綜合大樓地下","CENTRAL AND WESTERN","中西區","9:30 a.m. - 5:00 p.m. Mon to Fri<br>9:30 a.m. - 1:00 p.m. Sat","星期一至星期五上午九時三十分至下午五時<br>星期六上午九時三十分至下午一時","N.A.","N.A.","N.A.","N.A.","N.A.","N.A.","N.A.","N.A.","General Postal Services","一般郵政服務","","","815883.0","831342.0","22.28182","114.12908","2009-08-10 06:38:34"
"C1rczVoBiN","Post Offices","Cheung Chau Post Office","G/F, Regional Council Cheung Chau Complex, 2 Tai Hing Tai Road, Cheung Chau","郵政局","長洲郵政局","大興堤路2號長洲市政大廈地下","ISLANDS DISTRICT","離島區","9:00 a.m. - 4:30 p.m. Mon to Fri<br>9:00 a.m. - 12:30 p.m. Sat","星期一至星期五上午九時至下午四時三十分<br>星期六上午九時至下午十二時三十分","N.A.","N.A.","N.A.","N.A.","N.A.","N.A.","N.A.","N.A.","General Postal Services<br>P.O. Box<br>Philately","一般郵政服務<br>郵政信箱<br>集郵","","","807585.0","820953.0","22.20682","114.02835","2009-06-27 03:28:11"
"ZUnC6uMhu5","Post Offices","Hing Man Street Post Office","G/F, Shop 1, Wing Hing Court, 50-52 Hing Man Street, Sai Wan Ho","郵政局","興民街郵政局","西灣河興民街50-52號永興閣地下1號舖位","EASTERN","東區","9:30 a.m. - 5:00 p.m. Mon to Fri<br>9:30 a.m. - 1:00 p.m. Sat","星期一至星期五上午九時三十分至下午五時<br>星期六上午九時三十分至下午一時","N.A.","N.A.","N.A.","N.A.","N.A.","N.A.","N.A.","N.A.","General Postal Services","一般郵政服務","","","815796.0","841110.0","22.28103","114.22386","2009-03-09 20:24:46"
"wAQ9c9mdB0","Post Offices","King's Road Post Office","Shops 204-205A and 208-210, 2/F., Olympia Plaza, 255 King's Road, North Point","郵政局","英皇道郵政局","北角英皇道255號國都廣場二樓204至205A及208至210號舖","EASTERN","東區","9:30 a.m. - 5:00 p.m. Mon to Fri<br>9:30 a.m. - 1:00 p.m. Sat","星期一至星期五上午九時三十分至下午五時<br>星期六上午九時三十分至下午一時","N.A.","N.A.","N.A.","N.A.","N.A.","N.A.","N.A.","N.A.","General Postal Services<br>Bulk Posting Acceptance & Circular Service<br>P.O. Box<br>Philately","一般郵政服務<br>大量投寄 & 通函郵寄服務<br>郵政信箱<br>集郵","","","816759.0","838073.0","22.28973","114.19439","2009-03-09 20:24:46"
"ZRTxfgdxj9","Post Offices","Shau Kei Wan Post Office","G/F, Perfect Mount Gardens, 1 Po Man Street, Shau Kei Wan","郵政局","筲箕灣郵政局","筲箕灣寶文街1號峻峰花園地下","EASTERN","東區","9:30 a.m. - 5:00 p.m. Mon to Fri<br>9:30 a.m. - 1:00 p.m. Sat","星期一至星期五上午九時三十分至下午五時<br>星期六上午九時三十分至下午一時","N.A.","N.A.","N.A.","N.A.","N.A.","N.A.","N.A.","N.A.","General Postal Services<br>Bulk Posting Acceptance & Circular Service<br>P.O. Box<br>Philately","一般郵政服務<br>大量投寄 & 通函郵寄服務<br>郵政信箱<br>集郵","","","815576.0","841668.0","22.27904","114.22927","2009-03-09 20:24:46"
"wMalwU3LeX","Post Offices","Siu Sai Wan Post Office","Unit 1-2, G/F, Sui Yick House, Siu Sai Wan Estate, Chai Wan","郵政局","小西灣郵政局","柴灣小西灣邨瑞益樓地下1至2號舖位","EASTERN","東區","9:30 a.m. - 5:00 p.m. Mon to Fri<br>9:30 a.m. - 1:00 p.m. Sat","星期一至星期五上午九時三十分至下午五時<br>星期六上午九時三十分至下午一時","N.A.","N.A.","N.A.","N.A.","N.A.","N.A.","N.A.","N.A.","General Postal Services","一般郵政服務","","","813831.0","843606.0","22.26328","114.24807","2009-03-09 20:24:46"
"VFfNKMxQjS","Post Offices","Gloucester Road Post Office","1/F, Revenue Tower, 5 Gloucester Road, Wan Chai","郵政局","告士打道郵政局","灣仔告士打道5號稅務大樓1樓","WAN CHAI","灣仔區","9:30 a.m. - 5:00 p.m. Mon to Fri<br>9:30 a.m. - 1:00 p.m. Sat","星期一至星期五上午九時三十分至下午五時<br>星期六上午九時三十分至下午一時","N.A.","N.A.","N.A.","N.A.","N.A.","N.A.","N.A.","N.A.","General Postal Services<br>Bulk Posting Acceptance & Circular Service<br>P.O. Box","一般郵政服務<br>大量投寄 & 通函郵寄服務<br>郵政信箱","","","815637.0","835749.0","22.2796","114.17184","2009-03-09 20:24:46"
"QY9AkqUdHh","Post Offices","Happy Valley Post Office","G/F, 14-16 Sing Woo Road, Happy Valley","郵政局","跑馬地郵政局","跑馬地成和道14至16號地下","WAN CHAI","灣仔區","9:30 a.m. - 5:00 p.m. Mon to Fri<br>9:30 a.m. - 1:00 p.m. Sat","星期一至星期五上午九時三十分至下午五時<br>星期六上午九時三十分至下午一時","N.A.","N.A.","N.A.","N.A.","N.A.","N.A.","N.A.","N.A.","General Postal Services","一般郵政服務","","","814352.0","837271.0","22.268","114.18661","2009-03-09 20:24:46"
"3gbJjBT9rF","Post Offices","Tai Koo Shing Post Office","Shop G1020-1022, G/F, Kam Sing Mansion, 1-3 Tai Fung Avenue, Taikoo Shing","郵政局","太古城郵政局","太古城太豐路1至3號金星閣地下G1020至1022號舖位","EASTERN","東區","9:30 a.m. - 5:00 p.m. Mon to Fri<br>9:30 a.m. - 1:00 p.m. Sat","星期一至星期五上午九時三十分至下午五時<br>星期六上午九時三十分至下午一時","N.A.","N.A.","N.A.","N.A.","N.A.","N.A.","N.A.","N.A.","General Postal Services<br>Philately","一般郵政服務<br>集郵","","","816423.0","840570.0","22.28669","114.21862","2009-03-09 20:24:46"
"fiSQZdqUAi","Post Offices","Tsat Tsz Mui Post Office","Shops 1, 6, 7 & 11, G/F, Block C, Model Housing Estate, 770 King's Road, North Point","郵政局","七姊妹郵政局","北角英皇道770號模範邨C座地下1,6,7及11號舖位","EASTERN","東區","9:30 a.m. - 5:30 p.m. Mon to Fri<br>9:30 a.m. - 1:00 p.m. Sat","星期一至星期五上午九時三十分至下午五時三十分<br>星期六上午九時三十分至下午一時","N.A.","N.A.","N.A.","N.A.","N.A.","N.A.","N.A.","N.A.","General Postal Services<br>P.O. Box","一般郵政服務<br>郵政信箱","","","816862.0","839572.0","22.29066","114.20894","2009-03-09 20:24:46"
"snAKSpbdgK","Post Offices","Hing Fat Street Post Office","G/F, Causeway Bay Kaifong Welfare Association Building, 30 Hing Fat Street","郵政局","興發街郵政局","興發街30號銅鑼灣街坊福利會大廈地下","EASTERN","東區","9:30 a.m. - 5:00 p.m. Mon to Fri<br>9:30 a.m. - 1:00 p.m. Sat","星期一至星期五上午九時三十分至下午五時<br>星期六上午九時三十分至下午一時","N.A.","N.A.","N.A.","N.A.","N.A.","N.A.","N.A.","N.A.","General Postal Services<br>P.O. Box","一般郵政服務<br>郵政信箱","","","816056.0","837752.0","22.28339","114.19127","2009-03-09 20:24:46"
"XSvRi533Tn","Post Offices","Morrison Hill Post Office","G/F, 28 Oi Kwan Road, Wan Chai","郵政局","摩理臣山郵政局","灣仔愛群道28號","WAN CHAI","灣仔區","9:30 a.m. - 5:00 p.m. Mon to Fri<br>9:30 a.m. - 1:00 p.m. Sat","星期一至星期五上午九時三十分至下午五時<br>星期六上午九時三十分至下午一時","N.A.","N.A.","N.A.","N.A.","N.A.","N.A.","N.A.","N.A.","General Postal Services<br>Bulk Posting Acceptance & Circular Service<br>P.O. Box","一般郵政服務<br>大量投寄 & 通函郵寄服務<br>郵政信箱","","","815241.0","836549.0","22.27603","114.1796","2009-03-09 20:24:46"
"ybNweO8th6","Post Offices","Wan Chai Post Office","2/F Wu Chung House, 197-213 Queen's Road East","郵政局","灣仔郵政局","皇后大道東197至213號胡忠大廈2樓","WAN CHAI","灣仔區","9:30 a.m. - 5:00 p.m. Mon to Fri<br>9:30 a.m. - 1:00 p.m. Sat","星期一至星期五上午九時三十分至下午五時<br>星期六上午九時三十分至下午一時","N.A.","N.A.","N.A.","N.A.","N.A.","N.A.","N.A.","N.A.","General Postal Services<br>Bulk Posting Acceptance & Circular Service<br>P.O. Box<br>Philately","一般郵政服務<br>大量投寄 & 通函郵寄服務<br>郵政信箱<br>集郵","","","815063.0","835842.0","22.27442","114.17274","2009-03-09 20:24:46"
"0EQKLinKNp","Post Offices","Fo Tan Post Office","G/F, Shatin Galleria, 18-24 Shan Mei Street, Fo Tan, Sha Tin","郵政局","火炭郵政局","沙田火炭山尾街18至24號沙田商業中心地下","SHA TIN","沙田區","9:30 a.m. - 5:30 p.m. Mon to Fri<br>9:30 a.m. - 1:00 p.m. Sat","星期一至星期五上午九時三十分至下午五時三十分<br>星期六上午九時三十分至下午一時","N.A.","N.A.","N.A.","N.A.","N.A.","N.A.","N.A.","N.A.","General Postal Services<br>Bulk Posting Acceptance & Circular Service<br>P.O. Box","一般郵政服務<br>大量投寄 & 通函郵寄服務<br>郵政信箱","","","828660.0","837959.0","22.39721","114.1933","2009-03-09 20:24:46"
"q8SqITVNIs","Post Offices","Kwai Fong Post Office","Shop No. 4-10, G/F, Kwai Kin House, Kwai Fong Estate","郵政局","葵芳郵政局","葵芳邨葵健樓地下4至10號舖位","KWAI TSING","葵青區","9:30 a.m. - 5:00 p.m. Mon to Fri<br>9:30 a.m. - 1:00 p.m. Sat","星期一至星期五上午九時三十分至下午五時<br>星期六上午九時三十分至下午一時","N.A.","N.A.","N.A.","N.A.","N.A.","N.A.","N.A.","N.A.","General Postal Services<br>Bulk Posting Acceptance & Circular Service","一般郵政服務<br>大量投寄 & 通函郵寄服務","","","824547.0","831341.0","22.36006","114.12904","2009-03-09 20:24:46"
"vcoKwHkiQv","Post Offices","Sai Ying Pun Post Office","27 Pok Fu Lam Road","郵政局","西營盤郵政局","薄扶林道27號","CENTRAL AND WESTERN","中西區","9:30 a.m. - 5:00 p.m. Mon to Fri<br>9:30 a.m. - 1:00 p.m. Sat","星期一至星期五上午九時三十分至下午五時<br>星期六上午九時三十分至下午一時","N.A.","N.A.","N.A.","N.A.","N.A.","N.A.","N.A.","N.A.","General Postal Services<br>P.O. Box","一般郵政服務<br>郵政信箱","","","816342.0","832456.0","22.28596","114.13988","2009-03-09 20:24:46"
"qiMm8aBP48","Post Offices","Sheung Wan Post Office","1/F, Hong Kong Telecom CSL Tower, 322-324 Des Voeux Road Central","郵政局","上環郵政局","德輔道中322至324號香港電訊CSL中心1樓","CENTRAL AND WESTERN","中西區","9.30 a.m. - 6:00 p.m. Mon to Fri<br>9.30 a.m. - 1:00 p.m. Sat","星期一至星期五上午九時三十分至下午六時<br>星期六上午九時三十分至下午一時","N.A.","N.A.","N.A.","N.A.","N.A.","N.A.","N.A.","N.A.","General Postal Services<br>P.O. Box<br>Philately","一般郵政服務<br>郵政信箱<br>集郵","","","816430.0","833524.0","22.28676","114.15025","2009-03-09 20:24:46"
"vuDmkOhvF6","Post Offices","Discovery Bay Post Office","Shop 12A, G/F, Block C, Discovery Bay Plaza, Discovery Bay, Lantau Island","郵政局","愉景灣郵政局","大嶼山愉景灣愉景廣場C座地舖12A號","ISLANDS DISTRICT","離島區","9:30 a.m. - 5:00 p.m. Mon to Fri<br>9:30 a.m. - 1:00 p.m. Sat","星期一至星期五上午九時三十分至下午五時<br>星期六上午九時三十分至下午一時","N.A.","N.A.","N.A.","N.A.","N.A.","N.A.","N.A.","N.A.","General Postal Services","一般郵政服務","","","817428.0","819697.0","22.2957","114.01606","2009-03-09 20:24:46"
"Qn5exqnWFG","Post Offices","Lamma Post Office","G/F & 1/F, 2 Main Street, Yung Shu Wan, Lamma Island","郵政局","南丫郵政局","南丫島榕樹灣榕樹灣大街2號地下及1樓","ISLANDS DISTRICT","離島區","8:30 a.m. - 4:00 p.m. Mon to Fri<br>8:30 a.m. - 12:00 noon Sat","星期一至星期五上午八時三十分至下午四時<br>星期六上午八時三十分至中午十二時","N.A.","N.A.","N.A.","N.A.","N.A.","N.A.","N.A.","N.A.","General Postal Services<br>P.O. Box","一般郵政服務<br>郵政信箱","","","809814.0","829415.0","22.227","114.1104","2009-03-09 20:24:46"
"L4SIJE81a6","Post Offices","Mui Wo Post Office","G/F, Mui Wo Government Offices Building, 2 Ngan Kwong Wan Road, Mui Wo","郵政局","梅窩郵政局","梅窩銀礦灣道2號梅窩政府合署地下","ISLANDS DISTRICT","離島區","9:00 a.m. - 4:30 p.m. Mon to Fri<br>9:00 a.m. - 12:30 p.m. Sat","星期一至星期五上午九時至下午四時三十分<br>星期六上午九時至下午十二時三十分","N.A.","N.A.","N.A.","N.A.","N.A.","N.A.","N.A.","N.A.","General Postal Services<br>P.O. Box","一般郵政服務<br>郵政信箱","","","814154.0","817829.0","22.26611","113.99797","2009-03-09 20:24:46"
"oIbrxgsszp","Post Offices","Peng Chau Post Office","G/F, Government Building, Wing On Street","郵政局","坪洲郵政局","永安橫街政府合署大廈地下","ISLANDS DISTRICT","離島區","9:30 a.m. - 5:00 p.m. Mon to Fri<br>9:30 a.m. - 1:00 p.m. Sat","星期一至星期五上午九時三十分至下午五時<br>星期六上午九時三十分至下午一時","N.A.","N.A.","N.A.","N.A.","N.A.","N.A.","N.A.","N.A.","General Postal Services<br>P.O. Box","一般郵政服務<br>郵政信箱","","","816178.0","822015.0","22.28443","114.03857","2009-03-09 20:24:46"
"m4M6EwpaH0","Post Offices","Tai O Post Office","G/F, Tai O Government Building, 102 Shek Tsai Po St., Tai O, Lantau Island","郵政局","大澳郵政局","大嶼山大澳石仔埗街102號大澳政府合署地下","ISLANDS DISTRICT","離島區","9:30 a.m. - 5:00 p.m. Mon to Fri<br>9:30 a.m. - 1:00 p.m. Sat","星期一至星期五上午九時三十分至下午五時<br>星期六上午九時三十分至下午一時","N.A.","N.A.","N.A.","N.A.","N.A.","N.A.","N.A.","N.A.","General Postal Services<br>P.O. Box","一般郵政服務<br>郵政信箱","","","812964.0","803636.0","22.25515","113.8603","2009-03-09 20:24:46"
"K9M0iAnRc8","Post Offices","Tung Chung Post Office","G/F, 6 Mei Tung Street Tung Chung","郵政局","東涌郵政局","大嶼山東涌美東街6號地下","ISLANDS DISTRICT","離島區","9:30 a.m. - 5:00 p.m. Mon to Fri<br>9:30 a.m. - 1:00 p.m. Sat","星期一至星期五上午九時三十分至下午五時<br>星期六上午九時三十分至下午一時","N.A.","N.A.","N.A.","N.A.","N.A.","N.A.","N.A.","N.A.","General Postal Services<br>P.O. Box","一般郵政服務<br>郵政信箱","","","816719.0","811790.0","22.2892","113.93934","2009-03-09 20:24:46"
"iTfyHbpJdg","Post Offices","Tin Yuet Post Office","Unit 1, G/F, Wing B, Yuet Tai House, Tin Yuet Estate,Tin Shui Wai","郵政局","天悅郵政局","天水圍天悅邨悅泰樓B翼地下一號","YUEN LONG","元朗區","9:30 a.m. - 5:00 p.m. Mon to Fri<br>9:30 a.m. - 1:00 p.m. Sat","星期一至星期五上午九時三十分至下午五時<br>星期六上午九時三十分至下午一時","N.A.","N.A.","N.A.","N.A.","N.A.","N.A.","N.A.","N.A.","General Postal Services","一般郵政服務","","","835936.0","817980.0","22.46281","113.99919","2009-03-09 20:24:46"
"Py2uErJU8Y","Post Offices","Shek Wu Hui Post Office","112-116 San Fung Avenue, Shek Wu Hui, Sheung Shui","郵政局","石湖墟郵政局","上水石湖墟新豐路112至116號","NORTH","北區","9:00 a.m. - 6:00 p.m. Mon to Fri<br>9:00 a.m. - 1:00 p.m. Sat","星期一至星期五上午九時至下午六時<br>星期六上午九時至下午一時","N.A.","N.A.","N.A.","N.A.","N.A.","N.A.","N.A.","N.A.","General Postal Services<br>Bulk Posting Acceptance & Circular Service<br>P.O. Box<br>Philately","一般郵政服務<br>大量投寄 & 通函郵寄服務<br>郵政信箱<br>集郵","","","840478.0","831091.0","22.50392","114.12656","2009-03-09 20:24:46"
"splYEMJXgv","Post Offices","Tai Po Post Office","G/F, Tai Po Government Office Building, 1 Ting Kok Road","郵政局","大埔郵政局","汀角路1號大埔政府合署地下","TAI PO","大埔區","9:00 a.m. - 5:00 p.m. Mon to Fri<br>9:00 a.m. - 1:00 p.m. Sat","星期一至星期五上午九時至下午五時<br>星期六上午九時至下午一時","N.A.","N.A.","N.A.","N.A.","N.A.","N.A.","N.A.","N.A.","General Postal Services<br>Bulk Posting Acceptance & Circular Service<br>P.O. Box<br>Philately","一般郵政服務<br>大量投寄 & 通函郵寄服務<br>郵政信箱<br>集郵","","","834607.0","834964.0","22.45091","114.16421","2009-03-09 20:24:46"
"SbVCbhxk7e","Post Offices","Sai Kung Post Office","G/F, Sai Kung Government Offices Bldg., 34 Chan Man Street, Sai Kung","郵政局","西貢郵政局","西貢親民街34號西貢政府合署地下","SAI KUNG","西貢區","9:30 a.m. - 5:00 p.m. Mon to Fri<br>9:30 a.m. - 1:00 p.m. Sat","星期一至星期五上午九時三十分至下午五時<br>星期六上午九時三十分至下午一時","N.A.","N.A.","N.A.","N.A.","N.A.","N.A.","N.A.","N.A.","General Postal Services<br>Bulk Posting Acceptance & Circular Service<br>P.O. Box<br>Philately","一般郵政服務<br>大量投寄 & 通函郵寄服務<br>郵政信箱<br>集郵","","","827005.0","846098.0","22.38223","114.27233","2009-03-09 20:24:46"
"x92BvVkSLC","Post Offices","Gillies Avenue Post Office","G/F, 140 Gillies Avenue North, Hung Hom","郵政局","機利士路郵政局","紅磡機利士北路140號地下","KOWLOON CITY","九龍城區","9:30 a.m. - 5:00 p.m. Mon to Fri<br>9:30 a.m. - 1:00 p.m. Sat","星期一至星期五上午九時三十分至下午五時<br>星期六上午九時三十分至下午一時","N.A.","N.A.","N.A.","N.A.","N.A.","N.A.","N.A.","N.A.","General Postal Services<br>Bulk Posting Acceptance & Circular Service<br>P.O. Box<br>Philately","一般郵政服務<br>大量投寄 & 通函郵寄服務<br>郵政信箱<br>集郵","","","819184.0","837334.0","22.31163","114.18722","2009-03-09 20:24:46"
"jzd2QdpbFY","Post Offices","Tuen Mun Central Post Office","Podium Level, Library and Post Office Building, 1 Tuen Hi Road, Tuen Mun","郵政局","屯門中央郵政局","屯門屯喜路1號圖書館及郵政局大樓平台","TUEN MUN","屯門區","9:00 a.m. - 5:00 p.m. Mon to Fri<br>9:00 a.m. - 1:00 p.m. Sat","星期一至星期五上午九時至下午五時<br>星期六上午九時至下午一時","N.A.","N.A.","N.A.","N.A.","N.A.","N.A.","N.A.","N.A.","General Postal Services<br>Bulk Posting Acceptance & Circular Service<br>P.O. Box<br>Philately","一般郵政服務<br>大量投寄 & 通函郵寄服務<br>郵政信箱<br>集郵","","","827971.0","815660.0","22.39086","113.97675","2009-03-09 20:24:46"
"Yz9b194N7g","Post Offices","Kowloon Central Post Office","G/F, Kowloon Government Offices, 405 Nathan Road, Yau Ma Tei","郵政局","九龍中央郵政局","油麻地彌敦道405號九龍政府合署地下","YAU TSIM MONG","油尖旺區","9:30 a.m. - 6:00 p.m. Mon to Fri<br>9:30 a.m. - 1:00 p.m. Sat","星期一至星期五上午九時三十分至下午六時<br>星期六上午九時三十分至下午一時","N.A.","N.A.","N.A.","N.A.","N.A.","N.A.","N.A.","N.A.","General Postal Services<br>Bulk Posting Acceptance & Circular Service<br>P.O. Box<br>Philately","一般郵政服務<br>大量投寄 & 通函郵寄服務<br>郵政信箱<br>集郵","","","818941.0","835659.0","22.30944","114.17096","2009-03-09 20:24:46"
"eHZgIayGwI","Post Offices","Kwong Wa Street Post Office","Shop No. 11-14, G/F, Kwong Fai Mansion, 3-13 Kwong Wa Street, Mong Kok","郵政局","廣華街郵政局","旺角廣華街3至13號廣輝大廈地下11至14號舖位","YAU TSIM MONG","油尖旺區","9:30 a.m. - 5:00 p.m. Mon to Fri<br>9:30 a.m. - 1:00 p.m. Sat","星期一至星期五上午九時三十分至下午五時<br>星期六上午九時三十分至下午一時","N.A.","N.A.","N.A.","N.A.","N.A.","N.A.","N.A.","N.A.","General Postal Services<br>Philately","一般郵政服務<br>集郵","","","819740.0","835892.0","22.31665","114.17322","2009-03-09 20:24:46"
"LHveNy2TNo","Post Offices","Kowloon City Post Office","G/F, 28 Lung Kong Road, Kowloon City","郵政局","九龍城郵政局","九龍城龍崗道28號地下","KOWLOON CITY","九龍城區","9:30 a.m. - 5:00 p.m. Mon to Fri<br>9:30 a.m. - 1:00 p.m. Sat","星期一至星期五上午九時三十分至下午五時<br>星期六上午九時三十分至下午一時","N.A.","N.A.","N.A.","N.A.","N.A.","N.A.","N.A.","N.A.","General Postal Services<br>Bulk Posting Acceptance & Circular Service<br>P.O. Box<br>Philately","一般郵政服務<br>大量投寄 & 通函郵寄服務<br>郵政信箱<br>集郵","","","821173.0","837680.0","22.32959","114.19058","2009-03-09 20:24:46"
"i5QvUewCqu","Post Offices","To Kwa Wan Post Office","Arcade Shop D, G/F, Hang Chien Court, Wyler Garden, 108, Mei King Street, To Kwa Wan","郵政局","土瓜灣郵政局","土瓜灣美景街108號偉恆昌新村恆景閣地下商舖D","KOWLOON CITY","九龍城區","9:30 a.m. - 5:00 p.m. Mon to Fri<br>9:30 a.m. - 1:00 p.m. Sat","星期一至星期五上午九時三十分至下午五時<br>星期六上午九時三十分至下午一時","N.A.","N.A.","N.A.","N.A.","N.A.","N.A.","N.A.","N.A.","General Postal Services<br>P.O. Box<br>Philately","一般郵政服務<br>郵政信箱<br>集郵","","","819899.0","837876.0","22.31809","114.19248","2009-03-09 20:24:46"
"mEioIkZIGl","Post Offices","Wong Tai Sin Post Office","Shop No. 2, G/F, Lung Lok House, Lower Wong Tai Sin Estate","郵政局","黃大仙郵政局","黃大仙下邨龍樂樓地下2號舖位","WONG TAI SIN","黃大仙區","9:30 a.m. - 5:00 p.m. Mon to Fri<br>9:30 a.m. - 1:00 p.m. Sat","星期一至星期五上午九時三十分至下午五時<br>星期六上午九時三十分至下午一時","N.A.","N.A.","N.A.","N.A.","N.A.","N.A.","N.A.","N.A.","General Postal Services","一般郵政服務","","","822455.0","837875.0","22.34117","114.19247","2009-03-09 20:24:46"
"afrXd1oF6h","Post Offices","Mong Kok Post Office","1/F, Mongkok Exchange, 37 Bute Street, Mong Kok","郵政局","旺角郵政局","旺角弼街37號旺角機樓1樓","YAU TSIM MONG","油尖旺區","9:30 a.m. - 6:00 p.m. Mon to Fri<br>9:30 a.m. - 1:00 p.m. Sat","星期一至星期五上午九時三十分至下午六時<br>星期六上午九時三十分至下午一時","N.A.","N.A.","N.A.","N.A.","N.A.","N.A.","N.A.","N.A.","General Postal Services<br>P.O. Box<br>Philately","一般郵政服務<br>郵政信箱<br>集郵","","","820339.0","835372.0","22.32206","114.16818","2009-03-09 20:24:46"
"IMJkQtMESu","Post Offices","Sham Shui Po Post Office","G/F, 55 Un Chau Street","郵政局","深水埗郵政局","元洲街55號地下","SHAM SHUI PO","深水埗區","9:30 a.m. - 5:00 p.m. Mon to Fri<br>9:30 a.m. - 1:00 p.m. Sat","星期一至星期五上午九時三十分至下午五時<br>星期六上午九時三十分至下午一時","N.A.","N.A.","N.A.","N.A.","N.A.","N.A.","N.A.","N.A.","General Postal Services<br>P.O. Box<br>Philately","一般郵政服務<br>郵政信箱<br>集郵","","","821424.0","834894.0","22.33186","114.16354","2009-03-09 20:24:46"
"PVH2wfs35i","Post Offices","Lam Tin Post Office","Shop No.115, Kai Tin Shopping Centre, Kai Tin Estate, Lam Tin","郵政局","藍田郵政局","啟田邨啟田商場115號舖位","KWUN TONG","觀塘區","9:30 a.m. - 5:00 p.m. Mon to Fri<br>9:30 a.m. - 1:00 p.m. Sat","星期一至星期五上午九時三十分至下午五時<br>星期六上午九時三十分至下午一時","N.A.","N.A.","N.A.","N.A.","N.A.","N.A.","N.A.","N.A.","General Postal Services","一般郵政服務","","","818857.0","842251.0","22.30867","114.23494","2009-03-09 20:24:46"
"3PN6ShFJPy","Post Offices","Yeung Uk Road Post Office","Shop 15, 1/F, Indihome, 138 Yeung Uk Road, Tsuen Wan","郵政局","楊屋道郵政局","荃灣楊屋道138號樂悠居1樓15號舖","TSUEN WAN","荃灣區","9:30 a.m. - 5:00 p.m. Mon to Fri<br>9:30 a.m. - 1:00 p.m. Sat","星期一至星期五上午九時三十分至下午五時<br>星期六上午九時三十分至下午一時","N.A.","N.A.","N.A.","N.A.","N.A.","N.A.","N.A.","N.A.","General Postal Services","一般郵政服務","","","825231.0","830229.0","22.36623","114.11824","2009-03-09 20:24:46"
